start=new Date('2022-05-25T00:00:00.000Z').valueOf();
sats=[{"OBJECT_NAME":"STARLINK-1236","ELEMENT_SET_NO":"999","RCS_SIZE":"LARGE","MEAN_ELEMENT_THEORY":"SGP4","PERIOD":"95.592","INCLINATION":"53.0534","DECAY_DATE":null,"CLASSIFICATION_TYPE":"U","NORAD_CAT_ID":"45191","APOAPSIS":"548.306","TLE_LINE1":"1 45191U 20012P   22144.73721861 -.00000398  00000-0 -78020-5 0  9997","MEAN_MOTION":"15.06397372","RA_OF_ASC_NODE":"143.9169","GP_ID":"204451965","TLE_LINE2":"2 45191  53.0534 143.9169 0001566  46.7154 313.3965 15.06397372123302","OBJECT_TYPE":"PAYLOAD","LAUNCH_DATE":"2020-02-17","FILE":"3462783","MEAN_MOTION_DOT":"-0.00000398","ARG_OF_PERICENTER":"46.7154","REF_FRAME":"TEME","ECCENTRICITY":"0.00015660","MEAN_MOTION_DDOT":"0.0000000000000","REV_AT_EPOCH":"12330","EPHEMERIS_TYPE":"0","EPOCH":"2022-05-24T17:41:35.687904","OBJECT_ID":"2020-012P","PERIAPSIS":"546.137","CENTER_NAME":"EARTH","MEAN_ANOMALY":"313.3965","SEMIMAJOR_AXIS":"6925.357","BSTAR":"-0.00000780200000","TIME_SYSTEM":"UTC","SITE":"AFETR","COUNTRY_CODE":"US"},{"REF_FRAME":"TEME","MEAN_MOTION_DOT":"-0.00004942","ARG_OF_PERICENTER":"44.7155","FILE":"3462783","PERIAPSIS":"545.836","EPHEMERIS_TYPE":"0","OBJECT_ID":"2020-012Q","EPOCH":"2022-05-24T17:04:25.917312","REV_AT_EPOCH":"12609","ECCENTRICITY":"0.00019150","MEAN_MOTION_DDOT":"0.0000000000000","TIME_SYSTEM":"UTC","BSTAR":"-0.00031295000000","SEMIMAJOR_AXIS":"6925.297","CENTER_NAME":"EARTH","MEAN_ANOMALY":"315.3988","COUNTRY_CODE":"US","SITE":"AFETR","DECAY_DATE":null,"INCLINATION":"53.0541","RCS_SIZE":"LARGE","PERIOD":"95.591","MEAN_ELEMENT_THEORY":"SGP4","ELEMENT_SET_NO":"999","OBJECT_NAME":"STARLINK-1237","APOAPSIS":"548.488","NORAD_CAT_ID":"45192","CLASSIFICATION_TYPE":"U","RA_OF_ASC_NODE":"144.0121","GP_ID":"204452717","TLE_LINE1":"1 45192U 20012Q   22144.71141108 -.00004942  00000-0 -31295-3 0  9996","MEAN_MOTION":"15.06416784","LAUNCH_DATE":"2020-02-17","OBJECT_TYPE":"PAYLOAD","TLE_LINE2":"2 45192  53.0541 144.0121 0001915  44.7155 315.3988 15.06416784126093"},{"OBJECT_TYPE":"PAYLOAD","LAUNCH_DATE":"2020-02-17","TLE_LINE2":"2 45193  53.0542 144.0762 0002065  44.0882 316.0271 15.06385049126039","GP_ID":"204452961","RA_OF_ASC_NODE":"144.0762","MEAN_MOTION":"15.06385049","TLE_LINE1":"1 45193U 20012R   22144.70036946  .00001377  00000-0  11137-3 0  9999","APOAPSIS":"548.689","NORAD_CAT_ID":"45193","CLASSIFICATION_TYPE":"U","INCLINATION":"53.0542","DECAY_DATE":null,"MEAN_ELEMENT_THEORY":"SGP4","PERIOD":"95.593","RCS_SIZE":"LARGE","ELEMENT_SET_NO":"999","OBJECT_NAME":"STARLINK-1239","COUNTRY_CODE":"US","SITE":"AFETR","TIME_SYSTEM":"UTC","BSTAR":"0.00011137000000","SEMIMAJOR_AXIS":"6925.394","MEAN_ANOMALY":"316.0271","CENTER_NAME":"EARTH","PERIAPSIS":"545.829","OBJECT_ID":"2020-012R","EPOCH":"2022-05-24T16:48:31.921344","EPHEMERIS_TYPE":"0","REV_AT_EPOCH":"12603","MEAN_MOTION_DDOT":"0.0000000000000","ECCENTRICITY":"0.00020650","REF_FRAME":"TEME","ARG_OF_PERICENTER":"44.0882","MEAN_MOTION_DOT":"0.00001377","FILE":"3462783"},{"MEAN_ELEMENT_THEORY":"SGP4","PERIOD":"95.593","RCS_SIZE":"LARGE","INCLINATION":"53.0555","DECAY_DATE":null,"OBJECT_NAME":"STARLINK-1240","ELEMENT_SET_NO":"999","NORAD_CAT_ID":"45194","APOAPSIS":"548.820","CLASSIFICATION_TYPE":"U","MEAN_MOTION":"15.06391215","TLE_LINE1":"1 45194U 20012S   22144.70404847  .00000263  00000-0  36550-4 0  9999","GP_ID":"204452215","RA_OF_ASC_NODE":"144.0714","TLE_LINE2":"2 45194  53.0555 144.0714 0002281  46.3797 313.7380 15.06391215125981","LAUNCH_DATE":"2020-02-17","OBJECT_TYPE":"PAYLOAD","REF_FRAME":"TEME","FILE":"3462783","ARG_OF_PERICENTER":"46.3797","MEAN_MOTION_DOT":"0.00000263","EPOCH":"2022-05-24T16:53:49.787808","OBJECT_ID":"2020-012S","EPHEMERIS_TYPE":"0","PERIAPSIS":"545.661","MEAN_MOTION_DDOT":"0.0000000000000","ECCENTRICITY":"0.00022810","REV_AT_EPOCH":"12598","BSTAR":"0.00003655000000","TIME_SYSTEM":"UTC","MEAN_ANOMALY":"313.7380","CENTER_NAME":"EARTH","SEMIMAJOR_AXIS":"6925.375","SITE":"AFETR","COUNTRY_CODE":"US"},{"GP_ID":"204416096","RA_OF_ASC_NODE":"144.1649","MEAN_MOTION":"15.09507485","TLE_LINE1":"1 45195U 20012T   22144.47914070  .00022338  00000-0  13914-2 0  9992","OBJECT_TYPE":"PAYLOAD","LAUNCH_DATE":"2020-02-17","TLE_LINE2":"2 45195  53.0508 144.1649 0002705  15.6251 344.4822 15.09507485126066","DECAY_DATE":null,"INCLINATION":"53.0508","MEAN_ELEMENT_THEORY":"SGP4","PERIOD":"95.395","RCS_SIZE":"LARGE","ELEMENT_SET_NO":"999","OBJECT_NAME":"STARLINK-1241","APOAPSIS":"539.577","NORAD_CAT_ID":"45195","CLASSIFICATION_TYPE":"U","TIME_SYSTEM":"UTC","BSTAR":"0.00139140000000","SEMIMAJOR_AXIS":"6915.841","MEAN_ANOMALY":"344.4822","CENTER_NAME":"EARTH","COUNTRY_CODE":"US","SITE":"AFETR","REF_FRAME":"TEME","MEAN_MOTION_DOT":"0.00022338","ARG_OF_PERICENTER":"15.6251","FILE":"3462176","PERIAPSIS":"535.835","OBJECT_ID":"2020-012T","EPOCH":"2022-05-24T11:29:57.756480","EPHEMERIS_TYPE":"0","REV_AT_EPOCH":"12606","MEAN_MOTION_DDOT":"0.0000000000000","ECCENTRICITY":"0.00027050"},{"APOAPSIS":"548.728","NORAD_CAT_ID":"45196","CLASSIFICATION_TYPE":"U","INCLINATION":"53.0551","DECAY_DATE":null,"PERIOD":"95.592","MEAN_ELEMENT_THEORY":"SGP4","RCS_SIZE":"LARGE","ELEMENT_SET_NO":"999","OBJECT_NAME":"STARLINK-1244","OBJECT_TYPE":"PAYLOAD","LAUNCH_DATE":"2020-02-17","TLE_LINE2":"2 45196  53.0551 144.1445 0002163  38.3084 321.8058 15.06394730126135","GP_ID":"204453217","RA_OF_ASC_NODE":"144.1445","TLE_LINE1":"1 45196U 20012U   22144.68562246  .00000086  00000-0  24691-4 0  9992","MEAN_MOTION":"15.06394730","PERIAPSIS":"545.732","OBJECT_ID":"2020-012U","EPOCH":"2022-05-24T16:27:17.780544","EPHEMERIS_TYPE":"0","REV_AT_EPOCH":"12613","MEAN_MOTION_DDOT":"0.0000000000000","ECCENTRICITY":"0.00021630","REF_FRAME":"TEME","ARG_OF_PERICENTER":"38.3084","MEAN_MOTION_DOT":"0.00000086","FILE":"3462783","COUNTRY_CODE":"US","SITE":"AFETR","TIME_SYSTEM":"UTC","BSTAR":"0.00002469100000","SEMIMAJOR_AXIS":"6925.365","MEAN_ANOMALY":"321.8058","CENTER_NAME":"EARTH"},{"CLASSIFICATION_TYPE":"U","NORAD_CAT_ID":"45197","APOAPSIS":"548.562","OBJECT_NAME":"STARLINK-1269","ELEMENT_SET_NO":"999","RCS_SIZE":"LARGE","MEAN_ELEMENT_THEORY":"SGP4","PERIOD":"95.592","INCLINATION":"53.0551","DECAY_DATE":null,"TLE_LINE2":"2 45197  53.0551 145.0900 0001962  49.0986 311.0172 15.06403369125145","OBJECT_TYPE":"PAYLOAD","LAUNCH_DATE":"2020-02-17","MEAN_MOTION":"15.06403369","TLE_LINE1":"1 45197U 20012V   22144.47551670  .00000118  00000-0  26828-4 0  9999","RA_OF_ASC_NODE":"145.0900","GP_ID":"204387819","ECCENTRICITY":"0.00019620","MEAN_MOTION_DDOT":"0.0000000000000","REV_AT_EPOCH":"12514","EPHEMERIS_TYPE":"0","EPOCH":"2022-05-24T11:24:44.642880","OBJECT_ID":"2020-012V","PERIAPSIS":"545.844","FILE":"3461783","MEAN_MOTION_DOT":"0.00000118","ARG_OF_PERICENTER":"49.0986","REF_FRAME":"TEME","SITE":"AFETR","COUNTRY_CODE":"US","CENTER_NAME":"EARTH","MEAN_ANOMALY":"311.0172","SEMIMAJOR_AXIS":"6925.338","BSTAR":"0.00002682800000","TIME_SYSTEM":"UTC"},{"REF_FRAME":"TEME","MEAN_MOTION_DOT":"-0.00000200","ARG_OF_PERICENTER":"51.9704","FILE":"3462783","PERIAPSIS":"545.847","OBJECT_ID":"2020-012W","EPOCH":"2022-05-24T15:58:05.545344","EPHEMERIS_TYPE":"0","REV_AT_EPOCH":"12630","MEAN_MOTION_DDOT":"0.0000000000000","ECCENTRICITY":"0.00020090","TIME_SYSTEM":"UTC","BSTAR":"0.00000551150000","SEMIMAJOR_AXIS":"6925.373","MEAN_ANOMALY":"308.1466","CENTER_NAME":"EARTH","COUNTRY_CODE":"US","SITE":"AFETR","DECAY_DATE":null,"INCLINATION":"53.0558","PERIOD":"95.593","MEAN_ELEMENT_THEORY":"SGP4","RCS_SIZE":"LARGE","ELEMENT_SET_NO":"999","OBJECT_NAME":"STARLINK-1154","APOAPSIS":"548.629","NORAD_CAT_ID":"45198","CLASSIFICATION_TYPE":"U","GP_ID":"204451716","RA_OF_ASC_NODE":"124.2232","TLE_LINE1":"1 45198U 20012W   22144.66534196 -.00000200  00000-0  55115-5 0  9990","MEAN_MOTION":"15.06392038","OBJECT_TYPE":"PAYLOAD","LAUNCH_DATE":"2020-02-17","TLE_LINE2":"2 45198  53.0558 124.2232 0002009  51.9704 308.1466 15.06392038126305"},{"MEAN_MOTION":"15.06397857","TLE_LINE1":"1 45199U 20012X   22144.66902391  .00001972  00000-0  15124-3 0  9997","RA_OF_ASC_NODE":"124.2042","GP_ID":"204451966","TLE_LINE2":"2 45199  53.0557 124.2042 0001795  65.1472 294.9703 15.06397857126360","OBJECT_TYPE":"PAYLOAD","LAUNCH_DATE":"2020-02-17","RCS_SIZE":"LARGE","MEAN_ELEMENT_THEORY":"SGP4","PERIOD":"95.592","INCLINATION":"53.0557","DECAY_DATE":null,"OBJECT_NAME":"STARLINK-1197","ELEMENT_SET_NO":"999","NORAD_CAT_ID":"45199","APOAPSIS":"548.463","CLASSIFICATION_TYPE":"U","BSTAR":"0.00015124000000","TIME_SYSTEM":"UTC","CENTER_NAME":"EARTH","MEAN_ANOMALY":"294.9703","SEMIMAJOR_AXIS":"6925.355","SITE":"AFETR","COUNTRY_CODE":"US","REF_FRAME":"TEME","FILE":"3462783","MEAN_MOTION_DOT":"0.00001972","ARG_OF_PERICENTER":"65.1472","EPHEMERIS_TYPE":"0","EPOCH":"2022-05-24T16:03:23.665824","OBJECT_ID":"2020-012X","PERIAPSIS":"545.977","ECCENTRICITY":"0.00017950","MEAN_MOTION_DDOT":"0.0000000000000","REV_AT_EPOCH":"12636"},{"OBJECT_NAME":"STARLINK-1199","ELEMENT_SET_NO":"999","RCS_SIZE":"LARGE","PERIOD":"95.592","MEAN_ELEMENT_THEORY":"SGP4","DECAY_DATE":null,"INCLINATION":"53.0521","CLASSIFICATION_TYPE":"U","NORAD_CAT_ID":"45201","APOAPSIS":"548.567","TLE_LINE1":"1 45201U 20012Z   22144.67639792  .00007165  00000-0  49929-3 0  9994","MEAN_MOTION":"15.06409306","RA_OF_ASC_NODE":"124.1778","GP_ID":"204452718","TLE_LINE2":"2 45201  53.0521 124.1778 0001996  58.5991 301.5193 15.06409306126366","OBJECT_TYPE":"PAYLOAD","LAUNCH_DATE":"2020-02-17","FILE":"3462783","ARG_OF_PERICENTER":"58.5991","MEAN_MOTION_DOT":"0.00007165","REF_FRAME":"TEME","ECCENTRICITY":"0.00019960","MEAN_MOTION_DDOT":"0.0000000000000","REV_AT_EPOCH":"12636","EPHEMERIS_TYPE":"0","EPOCH":"2022-05-24T16:14:00.780288","OBJECT_ID":"2020-012Z","PERIAPSIS":"545.803","CENTER_NAME":"EARTH","MEAN_ANOMALY":"301.5193","SEMIMAJOR_AXIS":"6925.320","BSTAR":"0.00049929000000","TIME_SYSTEM":"UTC","SITE":"AFETR","COUNTRY_CODE":"US"}];
